{
  "norad_id": 60255,
  "name": "STARLINK-32138",
  "history": [
    {
      "epoch": "2026-03-28T20:55:13.010304Z",
      "apogee_km": 476.0679484320217,
      "perigee_km": 474.4447907463682,
      "latitude_deg": 2.4089420505144512e-05,
      "longitude_deg": -176.6264929645833,
      "height_km": 476.07247913969707,
      "semi_major_axis_km": 6853.393369589195,
      "eccentricity": 0.00011842,
      "inclination_deg": 53.1604,
      "raan_deg": 323.4636,
      "arg_perigee_deg": 84.1921,
      "mean_anomaly_deg": 275.9215,
      "mean_motion_rev_day": 15.30186168
    },
    {
      "epoch": "2026-03-29T01:37:22.259136Z",
      "apogee_km": 476.03309065528174,
      "perigee_km": 474.44310763228077,
      "latitude_deg": -1.7103491031837013e-05,
      "longitude_deg": 111.73121187840906,
      "height_km": 476.02114891942034,
      "semi_major_axis_km": 6853.375099143781,
      "eccentricity": 0.000116,
      "inclination_deg": 53.1602,
      "raan_deg": 322.553,
      "arg_perigee_deg": 81.667,
      "mean_anomaly_deg": 278.4462,
      "mean_motion_rev_day": 15.30192287
    },
    {
      "epoch": "2026-03-29T22:00:03.463200Z",
      "apogee_km": 475.9953719357982,
      "perigee_km": 474.4519951098682,
      "latitude_deg": -2.687742655319491e-05,
      "longitude_deg": 161.27822209613478,
      "height_km": 475.94674386600224,
      "semi_major_axis_km": 6853.360683522833,
      "eccentricity": 0.0001126,
      "inclination_deg": 53.1602,
      "raan_deg": 318.6086,
      "arg_perigee_deg": 76.8715,
      "mean_anomaly_deg": 283.2411,
      "mean_motion_rev_day": 15.30197115
    },
    {
      "epoch": "2026-03-29T22:00:03.464064Z",
      "apogee_km": 475.9953719357982,
      "perigee_km": 474.4519951098682,
      "latitude_deg": -2.689009022802334e-05,
      "longitude_deg": 161.27821847685732,
      "height_km": 475.9467438678503,
      "semi_major_axis_km": 6853.360683522833,
      "eccentricity": 0.0001126,
      "inclination_deg": 53.1602,
      "raan_deg": 318.6086,
      "arg_perigee_deg": 76.8715,
      "mean_anomaly_deg": 283.2411,
      "mean_motion_rev_day": 15.30197115
    },
    {
      "epoch": "2026-03-30T15:14:38.953248Z",
      "apogee_km": 476.0401926555696,
      "perigee_km": 474.46747652684826,
      "latitude_deg": -3.0336777437623e-05,
      "longitude_deg": -101.41450762391163,
      "height_km": 475.9650662136417,
      "semi_major_axis_km": 6853.390834591209,
      "eccentricity": 0.00011474,
      "inclination_deg": 53.1603,
      "raan_deg": 315.2719,
      "arg_perigee_deg": 76.2362,
      "mean_anomaly_deg": 283.8766,
      "mean_motion_rev_day": 15.30187017
    },
    {
      "epoch": "2026-03-30T21:30:51.363648Z",
      "apogee_km": 476.0317731507794,
      "perigee_km": 474.44124222711525,
      "latitude_deg": 1.4661597385622192e-05,
      "longitude_deg": 163.06331177132878,
      "height_km": 476.0448422752301,
      "semi_major_axis_km": 6853.373507688947,
      "eccentricity": 0.00011604,
      "inclination_deg": 53.1604,
      "raan_deg": 314.0589,
      "arg_perigee_deg": 83.5063,
      "mean_anomaly_deg": 276.607,
      "mean_motion_rev_day": 15.3019282
    },
    {
      "epoch": "2026-03-31T21:01:39.793728Z",
      "apogee_km": 476.05741483213296,
      "perigee_km": 474.4468683838559,
      "latitude_deg": -2.7666263641902505e-05,
      "longitude_deg": 164.8442263919678,
      "height_km": 476.0528909921405,
      "semi_major_axis_km": 6853.389141607994,
      "eccentricity": 0.0001175,
      "inclination_deg": 53.1599,
      "raan_deg": 309.5073,
      "arg_perigee_deg": 83.0488,
      "mean_anomaly_deg": 277.0646,
      "mean_motion_rev_day": 15.30187584
    },
    {
      "epoch": "2026-04-01T20:32:27.396096Z",
      "apogee_km": 476.0657046838842,
      "perigee_km": 474.40033576896803,
      "latitude_deg": 1.5901539828007615e-05,
      "longitude_deg": 166.62906313017695,
      "height_km": 476.09376678514434,
      "semi_major_axis_km": 6853.370020226425,
      "eccentricity": 0.0001215,
      "inclination_deg": 53.1605,
      "raan_deg": 304.9561,
      "arg_perigee_deg": 87.4219,
      "mean_anomaly_deg": 272.6921,
      "mean_motion_rev_day": 15.30193988
    },
    {
      "epoch": "2026-04-02T20:03:15.434784Z",
      "apogee_km": 476.2345365686615,
      "perigee_km": 474.240204626818,
      "latitude_deg": 5.431764857809065e-05,
      "longitude_deg": 168.41517258566964,
      "height_km": 476.0215281109765,
      "semi_major_axis_km": 6853.3743705977395,
      "eccentricity": 0.0001455,
      "inclination_deg": 53.1595,
      "raan_deg": 300.408,
      "arg_perigee_deg": 83.4578,
      "mean_anomaly_deg": 276.6589,
      "mean_motion_rev_day": 15.30192531
    },
    {
      "epoch": "2026-04-02T20:03:15.435648Z",
      "apogee_km": 476.23481070363687,
      "perigee_km": 474.23993049184264,
      "latitude_deg": 5.065131241063989e-05,
      "longitude_deg": 168.41516624419066,
      "height_km": 476.021496877644,
      "semi_major_axis_km": 6853.3743705977395,
      "eccentricity": 0.00014554,
      "inclination_deg": 53.1595,
      "raan_deg": 300.408,
      "arg_perigee_deg": 83.4578,
      "mean_anomaly_deg": 276.6589,
      "mean_motion_rev_day": 15.30192531
    },
    {
      "epoch": "2026-04-03T21:08:07.639872Z",
      "apogee_km": 476.113125949857,
      "perigee_km": 474.43404035698495,
      "latitude_deg": -3.585797718902502e-06,
      "longitude_deg": 146.31336132113083,
      "height_km": 476.03038702958173,
      "semi_major_axis_km": 6853.410583153421,
      "eccentricity": 0.0001225,
      "inclination_deg": 53.1599,
      "raan_deg": 295.5538,
      "arg_perigee_deg": 80.3078,
      "mean_anomaly_deg": 279.8061,
      "mean_motion_rev_day": 15.30180403
    },
    {
      "epoch": "2026-04-04T20:38:54.810240Z",
      "apogee_km": 475.91596511091757,
      "perigee_km": 474.56173804264745,
      "latitude_deg": 3.8084228723618126e-05,
      "longitude_deg": 148.09929951801072,
      "height_km": 476.0811092257577,
      "semi_major_axis_km": 6853.375851576782,
      "eccentricity": 9.88e-05,
      "inclination_deg": 53.1599,
      "raan_deg": 291.0019,
      "arg_perigee_deg": 85.2403,
      "mean_anomaly_deg": 274.8711,
      "mean_motion_rev_day": 15.30192035
    },
    {
      "epoch": "2026-04-05T12:19:26.372352Z",
      "apogee_km": 475.87108992436424,
      "perigee_km": 474.5922513304249,
      "latitude_deg": 1.709229323087614e-05,
      "longitude_deg": -90.71039316999968,
      "height_km": 476.0512455492084,
      "semi_major_axis_km": 6853.368670627394,
      "eccentricity": 9.33e-05,
      "inclination_deg": 53.1595,
      "raan_deg": 287.9675,
      "arg_perigee_deg": 82.9114,
      "mean_anomaly_deg": 277.1993,
      "mean_motion_rev_day": 15.3019444
    }
  ]
}